OBJECT_NAME,OBJECT_ID,EPOCH,MEAN_MOTION,ECCENTRICITY,INCLINATION,RA_OF_ASC_NODE,ARG_OF_PERICENTER,MEAN_ANOMALY,EPHEMERIS_TYPE,CLASSIFICATION_TYPE,NORAD_CAT_ID,ELEMENT_SET_NO,REV_AT_EPOCH,BSTAR,MEAN_MOTION_DOT,MEAN_MOTION_DDOT
STARLINK-30359,2023-134J,2026-07-13T00:04:19.954272,15.27581936,.00016145,43.0029,195.5220,274.4510,85.6157,0,U,57779,999,15880,.25171923E-4,.431E-5,0
STARLINK-30380,2023-134K,2026-07-13T00:13:31.124928,15.27577098,.00010847,43.0020,206.6710,278.4369,81.6360,0,U,57780,999,15867,.22595232E-4,.36E-5,0
STARLINK-30369,2023-134L,2026-07-12T02:09:46.828512,15.27577384,.00012069,43.0004,211.8086,271.3911,88.6803,0,U,57781,999,15853,-.20229206E-4,-.819E-5,0
STARLINK-30376,2023-134M,2026-07-13T01:27:19.526688,15.27578281,.00015069,42.9997,206.2050,294.0169,66.0525,0,U,57782,999,15868,.67076904E-4,.1584E-4,0
STARLINK-30389,2023-134N,2026-07-13T01:17:21.714720,15.27581381,.00015065,43.0016,209.5630,276.9757,83.0923,0,U,57783,999,15864,.30954019E-4,.59E-5,0
STARLINK-30388,2023-134P,2026-07-13T01:32:52.647072,15.27575279,.00012679,42.9994,206.2299,274.9803,85.0904,0,U,57784,999,15868,.15006503E-4,.151E-5,0
STARLINK-30381,2023-134Q,2026-07-13T00:24:35.906400,15.27577780,.0001271,43.0035,206.6435,278.2783,81.7924,0,U,57785,999,15867,.32374202E-4,.629E-5,0
STARLINK-30382,2023-134R,2026-07-12T12:48:31.356000,15.27582676,.0001517,43.0000,209.1274,276.5387,83.5291,0,U,57786,999,15860,.58322E-4,.1343E-4,0
STARLINK-30378,2023-134S,2026-07-13T02:13:36.164352,15.27578776,.0001011,43.0016,206.4361,259.6414,100.4323,0,U,57787,999,15868,.17361702E-4,.216E-5,0
STARLINK-30387,2023-134T,2026-07-12T01:51:20.977632,15.27571417,.00016295,43.0046,200.6212,276.2225,83.8441,0,U,57788,999,15866,.14578676E-4,.139E-5,0
STARLINK-30372,2023-134U,2026-07-12T17:50:09.945888,15.27583291,.00005609,42.9987,92.1414,268.8334,91.2454,0,U,57789,999,15999,.215503E-4,.331E-5,0
STARLINK-30367,2023-134W,2026-07-13T01:53:13.674336,15.27576451,.0001153,43.0019,206.3360,273.8229,86.2491,0,U,57791,999,15868,.22949013E-4,.369E-5,0
TIANQI-21,2023-135A,2026-07-13T04:21:53.809920,14.23135027,.00133316,49.9729,42.9429,349.1636,10.8987,0,U,57792,999,14833,.15535893E-3,.194E-5,0
TIANQI-22,2023-135B,2026-07-13T03:53:51.831744,14.23257226,.00128615,49.9693,43.1956,353.3577,6.7163,0,U,57793,999,14832,.34460364E-4,-.81E-6,0
TIANQI-23,2023-135C,2026-07-13T01:25:17.043456,14.23053520,.00136197,49.9732,43.6922,352.8952,7.1765,0,U,57794,999,14831,.11044601E-3,.92E-6,0
TIANQI-24,2023-135D,2026-07-13T05:11:19.377600,14.23155363,.00139343,49.9739,43.2622,353.5246,6.5484,0,U,57795,999,14833,-.6541933E-5,-.174E-5,0
YAOGAN-33 03,2023-136A,2026-07-13T07:52:17.337216,14.58747206,.00090889,98.1943,118.2939,103.0410,257.1805,0,U,57797,999,15174,.51388441E-4,.194E-5,0
XRISM,2023-137A,2026-07-13T06:09:43.846272,15.12661221,.00078651,31.0006,190.7052,227.1013,132.8966,0,U,57800,999,15681,.10993413E-3,.2069E-4,0
STARLINK-30374,2023-138B,2026-07-13T04:19:08.705568,15.27574983,.00007857,42.9991,245.2060,218.2492,141.8304,0,U,57809,999,15793,.66347854E-4,.1564E-4,0
STARLINK-30394,2023-138C,2026-07-13T03:05:20.621760,15.27593562,.00011493,43.0009,245.6849,222.7112,137.3651,0,U,57810,999,15782,.37886199E-3,.10182E-3,0
STARLINK-30379,2023-138D,2026-07-13T04:45:03.156480,15.27578555,.00014638,43.0037,245.3442,277.1246,82.9439,0,U,57811,999,15793,.47938163E-4,.1057E-4,0
STARLINK-30395,2023-138E,2026-07-13T04:50:33.614880,15.27506736,.00019971,43.0070,245.3719,280.1071,79.9556,0,U,57812,999,15793,.73929216E-3,.20092E-3,0
STARLINK-30403,2023-138F,2026-07-13T03:20:09.185280,15.27572338,.00015399,43.0005,245.7590,275.4127,84.6549,0,U,57813,999,15782,.26429413E-4,.465E-5,0
STARLINK-30413,2023-138G,2026-07-13T04:08:15.270144,15.27579782,.00010177,42.9999,246.0053,269.3627,90.7108,0,U,57814,999,15792,.23979587E-4,.398E-5,0
STARLINK-30398,2023-138H,2026-07-12T11:55:14.196576,15.27577284,.00015934,43.0008,249.5350,257.8401,102.2273,0,U,57815,999,15772,.55946415E-4,.1277E-4,0
STARLINK-30386,2023-138J,2026-07-13T05:16:30.595584,15.27579297,.00018561,43.0009,245.5049,267.8168,92.2471,0,U,57816,999,15775,.21778765E-4,.337E-5,0
STARLINK-30391,2023-138K,2026-07-13T03:47:54.351744,15.27591123,.00030027,42.9998,245.9007,291.6425,68.4107,0,U,57817,999,15792,.49361561E-3,.13351E-3,0
STARLINK-30401,2023-138L,2026-07-13T03:51:35.819136,15.27579458,.00016461,43.0005,245.9094,274.9602,85.1061,0,U,57818,999,15782,.3930332E-5,-.154E-5,0
STARLINK-30390,2023-138M,2026-07-13T00:48:50.384736,15.27578228,.00016651,43.0014,246.6852,261.8782,98.1881,0,U,57819,999,15784,.43149587E-4,.925E-5,0
STARLINK-30409,2023-138N,2026-07-13T04:30:15.017184,15.27562154,.00029233,43.0002,245.2411,151.6372,208.4639,0,U,57820,999,15787,-.63754485E-4,-.2016E-4,0
STARLINK-30415,2023-138P,2026-07-13T04:13:48.150336,15.27579355,.00026391,43.0005,246.0305,261.3703,98.6850,0,U,57821,999,15792,-.4253515E-4,-.1433E-4,0
STARLINK-30407,2023-138R,2026-07-13T05:05:50.971200,15.27576444,.00009775,43.0004,139.8953,273.8983,86.1757,0,U,57823,999,15916,.45313663E-4,.985E-5,0
STARLINK-30408,2023-138S,2026-07-13T04:24:41.857920,15.27575847,.00012273,43.0004,245.2307,194.6059,165.4758,0,U,57824,999,15792,.37651439E-4,.774E-5,0
STARLINK-30377,2023-138T,2026-07-13T04:22:51.767904,15.27556140,.00013744,43.0001,245.2228,290.4050,69.6654,0,U,57825,999,15782,-.29314113E-4,-.1068E-4,0
STARLINK-30422,2023-138U,2026-07-13T03:21:59.487840,15.27582550,.00017607,43.0034,245.7644,271.6737,88.3913,0,U,57826,999,15791,.3391812E-4,.671E-5,0
STARLINK-30402,2023-138V,2026-07-13T03:07:11.533440,15.27574337,.00015964,43.0023,245.6901,263.9094,96.1576,0,U,57827,999,15791,.47568677E-4,.1047E-4,0
STARLINK-30411,2023-138W,2026-07-13T04:35:47.537088,15.27577071,.00009221,42.9991,245.2663,221.8834,138.1948,0,U,57828,999,15786,.4221151E-4,.9E-5,0
STARLINK-30418,2023-138X,2026-07-13T04:28:24.571200,15.27549883,.00016503,43.0034,245.2505,266.8048,93.2615,0,U,57829,999,15776,.4295208E-4,.919E-5,0
YAOGAN-40 01A,2023-139A,2026-07-13T07:03:29.877984,14.12452086,.00023429,85.9892,248.2397,94.2726,265.8725,0,U,57830,999,14638,.40883339E-4,.94E-6,0
YAOGAN-40 01B,2023-139C,2026-07-13T07:03:43.536096,14.12452349,.00024611,85.9893,248.2174,93.5786,266.5679,0,U,57832,999,14639,.476206E-4,.107E-5,0
YAOGAN-40 01C,2023-139D,2026-07-13T07:03:36.124704,14.12452617,.00023136,85.9895,247.5039,74.2005,285.9433,0,U,57833,999,14649,.5020026E-4,.111E-5,0
STARLINK-30285,2023-141A,2026-07-13T01:30:52.628832,15.31707194,.0001282,53.1605,61.0315,96.9494,263.1654,0,U,57840,999,15953,.80369707E-4,.213E-4,0
STARLINK-30410,2023-141B,2026-07-13T00:10:19.690176,15.31713229,.00011125,53.1607,61.2063,105.0325,255.0799,0,U,57841,999,15952,.31552112E-4,.615E-5,0
STARLINK-30435,2023-141C,2026-07-12T21:29:17.257632,15.31707434,.0001182,53.1595,61.9607,92.9911,267.1226,0,U,57842,999,15950,.26983176E-4,.472E-5,0
STARLINK-30423,2023-141D,2026-07-12T22:49:48.533088,15.31701904,.00013556,53.1609,61.5571,87.7970,272.3186,0,U,57843,999,15951,.9120398E-4,.2466E-4,0
STARLINK-30292,2023-141E,2026-07-12T21:34:55.969824,15.30193125,.00014789,53.1604,62.1532,87.6612,272.4558,0,U,57844,999,15950,.43568727E-4,.931E-5,0
STARLINK-30416,2023-141H,2026-07-12T21:09:11.055744,15.31686541,.00014302,53.1606,62.0002,93.8286,266.2879,0,U,57847,999,15950,.25441524E-4,.424E-5,0
STARLINK-30426,2023-141J,2026-07-12T23:03:01.293696,15.30194070,.00021712,53.1626,62.2813,67.3022,292.8208,0,U,57848,999,15950,.35613594E-4,.695E-5,0
STARLINK-30430,2023-141K,2026-07-12T21:22:36.119712,15.31704132,.00013346,53.1592,62.1001,96.2679,263.8474,0,U,57849,999,15950,.33448896E-4,.673E-5,0
STARLINK-30425,2023-141L,2026-07-12T21:33:30.615264,15.30191363,.00020447,53.1603,62.6072,134.3521,225.7648,0,U,57850,999,15949,-.30395001E-4,-.126E-4,0
STARLINK-30405,2023-141M,2026-07-13T00:03:36.714528,15.31676103,.00013678,53.1597,61.3231,109.4129,250.7021,0,U,57851,999,15952,.25508456E-3,.7553E-4,0
STARLINK-30431,2023-141N,2026-07-12T21:42:30.001824,15.30216431,.00012583,53.1601,62.1791,96.2866,263.8278,0,U,57852,999,15949,.1243362E-3,.3327E-4,0
STARLINK-30404,2023-141P,2026-07-12T21:36:27.381888,15.30360627,.00009638,53.1595,62.1557,38.3961,321.7109,0,U,57853,999,15950,-.11686453E-2,-.34981E-3,0
STARLINK-30412,2023-141Q,2026-07-12T21:51:39.752928,15.30199729,.00010986,53.1613,62.2203,82.6100,277.5025,0,U,57854,999,15950,-.11063527E-3,-.3634E-4,0
STARLINK-30392,2023-141R,2026-07-12T21:47:05.080416,15.30182149,.00014759,53.1601,62.1999,77.7880,282.3286,0,U,57855,999,15950,.97091832E-4,.2516E-4,0
STARLINK-30291,2023-141S,2026-07-12T22:09:30.947904,15.31722053,.00012148,53.1584,61.5880,90.2912,269.8229,0,U,57856,999,15951,.58089699E-4,.1439E-4,0
STARLINK-30424,2023-141T,2026-07-12T23:33:44.864064,15.31702453,.00013113,53.1629,35.9819,99.7745,260.3405,0,U,57857,999,15987,.12400141E-3,.3485E-4,0
STARLINK-30290,2023-141U,2026-07-12T22:00:45.844128,15.30197648,.00014931,53.1603,62.2554,91.7819,268.3353,0,U,57858,999,15950,.23078859E-3,.6482E-4,0
STARLINK-30414,2023-141V,2026-07-12T21:56:12.217056,15.30199584,.00013125,53.1611,62.2389,94.3369,265.7782,0,U,57859,999,15950,.36859881E-4,.733E-5,0
STARLINK-30272,2023-141W,2026-07-12T23:50:11.835456,15.31698444,.00012846,53.1588,61.3112,108.6678,251.4463,0,U,57860,999,15952,-.46872622E-4,-.1819E-4,0
STARLINK-30432,2023-144A,2026-07-13T07:49:45.909984,15.27577633,.00011245,43.0023,295.5345,266.8965,93.1758,0,U,57864,999,15681,.24662923E-4,.417E-5,0
STARLINK-30427,2023-144B,2026-07-13T06:21:09.417312,15.27580048,.00009794,43.0022,295.9251,260.2069,99.8672,0,U,57865,999,15680,.43259369E-4,.929E-5,0
STARLINK-30393,2023-144C,2026-07-13T07:38:39.465312,15.27579130,.0001764,42.9958,295.4603,175.4697,184.6171,0,U,57866,999,15681,.18456835E-4,.246E-5,0
STARLINK-30439,2023-144D,2026-07-13T06:26:42.700128,15.27586622,.00010709,43.0012,295.9551,249.1613,110.9124,0,U,57867,999,15685,.28452628E-3,.7577E-4,0
